[{"OBJECT_NAME":"JILIN-1 07","OBJECT_ID":"2018-008E","EPOCH":"2026-03-09T22:24:26.445888","MEAN_MOTION":15.32987507,"ECCENTRICITY":0.00101791,"INCLINATION":97.1876,"RA_OF_ASC_NODE":91.5817,"ARG_OF_PERICENTER":62.7832,"MEAN_ANOMALY":297.4447,"EPHEMERIS_TYPE":0,"CLASSIFICATION_TYPE":"U","NORAD_CAT_ID":43159,"ELEMENT_SET_NO":999,"REV_AT_EPOCH":44978,"BSTAR":0.00036439521,"MEAN_MOTION_DOT":0.00011559,"MEAN_MOTION_DDOT":0},{"OBJECT_NAME":"STARLINK-35024","OBJECT_ID":"2025-192G","EPOCH":"2026-03-09T16:20:35.643840","MEAN_MOTION":15.31013721,"ECCENTRICITY":8.092e-5,"INCLINATION":53.1586,"RA_OF_ASC_NODE":232.3417,"ARG_OF_PERICENTER":35.0037,"MEAN_ANOMALY":325.1017,"EPHEMERIS_TYPE":0,"CLASSIFICATION_TYPE":"U","NORAD_CAT_ID":65410,"ELEMENT_SET_NO":999,"REV_AT_EPOCH":2938,"BSTAR":0.00084166183,"MEAN_MOTION_DOT":0.00025289,"MEAN_MOTION_DDOT":0}]
